JILIN-1 08              
1 43160U 18008F   26068.94297667  .00011349  00000+0  36689-3 0  9995
2 43160  97.1902  90.9961 0008132  76.0646 284.1500 15.32205976449749
NUSAT-50 (NANCY ROMAN)  
1 60493U 24149AB  26068.80227738  .00012094  00000+0  42252-3 0  9994
2 60493  97.3817 150.7693 0002522 238.0469 122.0527 15.29713355 86939
